[{"tags":{"addr:city":"Berlin","addr:country":"DE","addr:postcode":"10623","addr:street":"Knesebeckstraße","addr:suburb":"Charlottenburg","amenity":"restaurant","cuisine":"italian","name":"Aida","toilets:wheelchair":"yes","website":"http://www.aida-restaurant.de/","wheelchair":"no"},"doi":"2020-02-02T17:00:08.751Z","name":"Aida","amenity":"restaurant","id":26735749,"location":{"type":"Point","coordinates":[13.3228214,52.506911]},"googleDetails":{"formatted_address":"Knesebeckstraße 83, 10623 Berlin, Germany","geometry":{"location":{"lat":52.5068333,"lng":13.3228333},"viewport":{"northeast":{"lat":52.50819137989272,"lng":13.32404582989272},"southwest":{"lat":52.50549172010728,"lng":13.32134617010728}}},"name":"Aida","opening_hours":{"open_now":true},"photos":[{"height":1430,"html_attributions":["<a href=\"https://maps.google.com/maps/contrib/101882811516471568497\">Ristorante Aida</a>"],"photo_reference":"CmRaAAAAzb77EoDNgJovsqKr3N40KlU4YLz32tmnJnOwW0ryyinnFHCoR1ReVLF9OTAlWab3_9p0KdXttxf6VOPX8xqHwUW0a7nG2GM63zm4sTAAkF-L45sQUta5xdLgMS6eFeDNEhCLv61LjoPNzy4g-6-J0NbuGhTnROSwfKKPRE4UpZmnvPcnPLz0vw","width":2048}],"place_id":"ChIJB8iULf1QqEcRoe6ecNcH3y0","plus_code":{"compound_code":"G84F+P4 Berlin, Germany","global_code":"9F4MG84F+P4"},"price_level":2,"rating":4.5,"types":["restaurant","food","point_of_interest","establishment"],"user_ratings_total":456},"priceLevel":2,"userRatingsTotal":456,"rating":4.5},{"tags":{"addr:city":"Berlin","addr:country":"DE","addr:housenumber":"30","addr:postcode":"10623","addr:street":"Kantstraße","addr:suburb":"Charlottenburg","amenity":"restaurant","contact:website":"http://madame-ngo.de/","cuisine":"asian","name":"Madame Ngo","outdoor_seating":"yes","wheelchair":"limited"},"doi":"2020-02-02T17:00:09.229Z","name":"Madame Ngo","amenity":"restaurant","id":26735759,"location":{"type":"Point","coordinates":[13.3180811,52.5062119]},"googleDetails":{"formatted_address":"Kantstraße 30, 10623 Berlin, Germany","geometry":{"location":{"lat":52.506201,"lng":13.318094},"viewport":{"northeast":{"lat":52.50750812989273,"lng":13.31943902989272},"southwest":{"lat":52.50480847010728,"lng":13.31673937010727}}},"name":"Madame Ngo Une Brasserie Hanoi","opening_hours":{"open_now":true},"photos":[{"height":3024,"html_attributions":["<a href=\"https://maps.google.com/maps/contrib/101065877486762749081\">Gary So</a>"],"photo_reference":"CmRaAAAA9ids6_XoS31xduy5TQsGXB4-Kv6-um7WAe0LO3of8sibCeX4DPiwCpXjAM_NgCIjKdcqt0YdA_vbhxNSXn309ddUobUeO8JtykzR0QXxFbAJVHzPwp51FQNm7fkh6AW0EhBdROXBxaQORBELOHdL_mijGhSmaBsXWuG1YjmLV4sNTe1PiUGS7Q","width":4032}],"place_id":"ChIJ3yVOqONQqEcRigSZe1PhrgY","plus_code":{"compound_code":"G849+F6 Berlin, Germany","global_code":"9F4MG849+F6"},"price_level":2,"rating":4.4,"types":["restaurant","food","point_of_interest","establishment"],"user_ratings_total":778},"priceLevel":2,"userRatingsTotal":778,"rating":4.4},{"tags":{"addr:city":"Berlin","addr:country":"DE","addr:housenumber":"106","addr:postcode":"10625","addr:street":"Pestalozzistraße","addr:suburb":"Charlottenburg","amenity":"restaurant","cuisine":"vietnamese","name":"Lemongrass","website":"http://www.lemongrass-berlin.com","wheelchair":"no","wheelchair:description":"Stufe am Eingang, aber rollstuhlgerechtes WC"},"doi":"2020-02-02T17:00:10.417Z","name":"Lemongrass","amenity":"restaurant","id":26735763,"location":{"type":"Point","coordinates":[13.3207804,52.5073199]},"googleDetails":{"formatted_address":"Anklamer Str. 38, 10115 Berlin, Germany","geometry":{"location":{"lat":52.5352986,"lng":13.3993039},"viewport":{"northeast":{"lat":52.53661887989272,"lng":13.40078592989272},"southwest":{"lat":52.53391922010728,"lng":13.39808627010728}}},"name":"Lemongrass - Anklamer Str.","opening_hours":{"open_now":true},"photos":[{"height":3024,"html_attributions":["<a href=\"https://maps.google.com/maps/contrib/105773306432801116772\">Aquascaping Berlin</a>"],"photo_reference":"CmRaAAAA0oH_A_0hYNJvzeQGo0XY70KBZJ5Norj32wdd-AfMPUDcKAX-7waWijYsih-H7dfTSolRzSKhj4KyNIAyh1UyYZMLTdJeodgYpPusYTgOreenrhvBbDMYrOunF46K-bmbEhBAu8GXU7Z0vJBTvAMX2CsjGhRGm4r_YrKCLHLioz8J7CIYtqnxjw","width":4032}],"place_id":"ChIJM6YVA_1RqEcRt7JilCA0gqg","plus_code":{"compound_code":"G9PX+4P Berlin, Germany","global_code":"9F4MG9PX+4P"},"rating":4.2,"types":["restaurant","food","point_of_interest","establishment"],"user_ratings_total":249},"userRatingsTotal":249,"rating":4.2},{"tags":{"addr:city":"Berlin","addr:country":"DE","addr:housenumber":"19","addr:postcode":"14057","addr:street":"Neue Kantstraße","addr:suburb":"Charlottenburg","amenity":"restaurant","contact:facebook":"https://www.facebook.com/LaPergolaBerlin/","contact:phone":"+49 30 3212430","contact:website":"http://www.lapergola-berlin.de","cuisine":"italian","level":"0","name":"La Pergola","note":"website z.Z. (?) nicht erreichbar","opening_hours":"Mo-Su 11:00-00:00","toilets:wheelchair":"no","wheelchair":"limited","wheelchair:description":"Ebenerdiger Zugang aber kein Rollstuhl-WC"},"doi":"2020-02-02T17:00:11.430Z","name":"La Pergola","amenity":"restaurant","id":29997724,"location":{"type":"Point","coordinates":[13.2846256,52.5063184]},"googleDetails":{"formatted_address":"Via Alberto Cadlolo, 101, 00136 Roma RM, Italy","geometry":{"location":{"lat":41.9189892,"lng":12.4466609},"viewport":{"northeast":{"lat":41.92030122989272,"lng":12.44788987989272},"southwest":{"lat":41.91760157010727,"lng":12.44519022010728}}},"name":"La Pergola","opening_hours":{"open_now":false},"photos":[{"height":2932,"html_attributions":["<a href=\"https://maps.google.com/maps/contrib/105303505373661530610\">Hauser Quaid Zzyzx</a>"],"photo_reference":"CmRaAAAAOtRQRWqjkWcePZyH4lNg8B2E7m9fSitDKC_pwESEx0fCKj7-Up7CiacZ_bMi_2nK0lissBquOyQtyfGnpLbhM4JLAXkVvoq6E6aVtPcnCaZkqTwr_9L6S6rrIp6lEnUHEhC8-AuJJpowTSHe4-Ogy-BpGhRrBY4RiJpMjCiYRHKCGA0YZGBwHw","width":3909}],"place_id":"ChIJHw9AUoRgLxMR2Up1TWI6ZS8","plus_code":{"compound_code":"WC9W+HM Rome, Metropolitan City of Rome, Italy","global_code":"8FHJWC9W+HM"},"price_level":4,"rating":4.6,"types":["restaurant","food","point_of_interest","establishment"],"user_ratings_total":685},"priceLevel":4,"userRatingsTotal":685,"rating":4.6},{"tags":{"addr:city":"Berlin","addr:country":"DE","addr:housenumber":"55","addr:postcode":"13355","addr:street":"Brunnenstraße","addr:suburb":"Gesundbrunnen","amenity":"cafe","contact:phone":"+49 30 46456678","internet_access":"wlan","name":"Eiscafe Eisberg","website":"http://www.eis-berg.de/","wheelchair":"limited"},"doi":"2020-02-02T17:00:12.594Z","name":"Eiscafe Eisberg","amenity":"cafe","id":30012754,"location":{"type":"Point","coordinates":[13.3960965,52.5388551]},"googleDetails":{"formatted_address":"Brunnenstraße 55, 13355 Berlin, Germany","geometry":{"location":{"lat":52.5390638,"lng":13.3959348},"viewport":{"northeast":{"lat":52.54035942989272,"lng":13.39709717989272},"southwest":{"lat":52.53765977010728,"lng":13.39439752010728}}},"name":"Eiscafé Eisberg","opening_hours":{"open_now":true},"photos":[{"height":600,"html_attributions":["<a href=\"https://maps.google.com/maps/contrib/114593809716112240400\">Mathias Heinrich</a>"],"photo_reference":"CmRaAAAAuHz5gWNZVTfXQmHkdt99xWhT0toH1GsI1zPX8ys8KHsIFRNiLJKbcPQKeVVVvIrceCKjsNYPdIzvYKQXVNpBAcyoatAxm76Yvydpbub9v0hejJxtsi731ZLly8wV3lVnEhBmK7mXpXwE63B3k6EddOEhGhR6Ozrw-QNF4ns3NGEQJpfsjK24wA","width":800}],"place_id":"ChIJMw-G1vZRqEcRjtJ53GfDczM","plus_code":{"compound_code":"G9QW+J9 Berlin, Germany","global_code":"9F4MG9QW+J9"},"price_level":1,"rating":4.2,"types":["cafe","food","point_of_interest","store","establishment"],"user_ratings_total":274},"priceLevel":1,"userRatingsTotal":274,"rating":4.2},{"tags":{"addr:city":"Berlin","addr:country":"DE","addr:housenumber":"19","addr:postcode":"10961","addr:street":"Zossener Straße","addr:suburb":"Kreuzberg","amenity":"restaurant","cuisine":"tibetan","diet:vegan":"yes","name":"Tibet Haus","opening_hours":"12:00-24:00","phone":"+49306948948","wheelchair":"no"},"doi":"2020-02-02T17:00:13.560Z","name":"Tibet Haus","amenity":"restaurant","id":30020303,"location":{"type":"Point","coordinates":[13.3939814,52.4907103]},"googleDetails":{"formatted_address":"Zossener Str. 19, 10961 Berlin, Germany","geometry":{"location":{"lat":52.49066999999999,"lng":13.39391},"viewport":{"northeast":{"lat":52.49200612989272,"lng":13.39538997989272},"southwest":{"lat":52.48930647010728,"lng":13.39269032010728}}},"name":"Tibet Haus","opening_hours":{"open_now":true},"photos":[{"height":3024,"html_attributions":["<a href=\"https://maps.google.com/maps/contrib/110613422866564257977\">Mike Schumacher</a>"],"photo_reference":"CmRZAAAAXRey_yNBjEAFcmCVvzjdO4BjWOxheERFj9IjzKuSEqLHhBmC9rO33wFku0vhOHO6SCmqWZnL8hIVJRTFfXI66beIWwF63AKIpI1zWzCFvuCQjXJ0ma9ze_iAu-k3VX_GEhD4yTrgqRUjcGQ-FJllEShGGhQwyV0-kUngBoUmVQ94TwRdnmgyMw","width":4032}],"place_id":"ChIJ0wpnjddPqEcRIBm_tdDRlCA","plus_code":{"compound_code":"F9RV+7H Berlin, Germany","global_code":"9F4MF9RV+7H"},"price_level":1,"rating":4.3,"types":["restaurant","food","point_of_interest","establishment"],"user_ratings_total":538},"priceLevel":1,"userRatingsTotal":538,"rating":4.3},{"tags":{"amenity":"restaurant","name":"Lindengarten","opening_hours":"\"dauerhaft geschlossen\"","website":"http://www.lindengarten-wedding.de/","wheelchair":"no"},"doi":"2020-02-02T17:00:14.566Z","name":"Lindengarten","amenity":"restaurant","id":35300987,"location":{"type":"Point","coordinates":[13.350191,52.5394261]},"googleDetails":{"formatted_address":"Alt-Buckow 15A, 12349 Berlin, Germany","geometry":{"location":{"lat":52.422872,"lng":13.4342839},"viewport":{"northeast":{"lat":52.42413432989272,"lng":13.43557977989272},"southwest":{"lat":52.42143467010727,"lng":13.43288012010728}}},"name":"Restaurant Linden-Garten","opening_hours":{"open_now":true},"photos":[{"height":1536,"html_attributions":["<a href=\"https://maps.google.com/maps/contrib/118394438048722273767\">Restaurant Linden-Garten</a>"],"photo_reference":"CmRaAAAAlrnXqwIgiDh_-Iyqi8vJ7IfGNhyPv6RvlsebSno9dIZvMleBoe_ofApXeGTHVdrwpq2hGfnCAc25w9cfLGf0kQGlKAsDDBZKjgIeO4lEKvVGFrV2SaWWdv1HGII2w0fbEhDub-n6NTcU4IGgOcSFSTOpGhQZlGq7qHu3IoIn0fUkyZtjMxadMg","width":2048}],"place_id":"ChIJ3zgoJqVFqEcRZ_l4WRCgPxA","plus_code":{"compound_code":"CCFM+4P Berlin, Germany","global_code":"9F4MCCFM+4P"},"price_level":2,"rating":4.1,"types":["bar","restaurant","food","point_of_interest","establishment"],"user_ratings_total":329},"priceLevel":2,"userRatingsTotal":329,"rating":4.1},{"tags":{"addr:city":"Berlin","addr:housenumber":"146","addr:postcode":"13353","addr:street":"Müllerstraße","amenity":"cafe","microroasting":"yes","name":"Coffee Star","opening_hours":"Mo-Fr 09:00-18:30; Sa 10:00-16:00","phone":"+49 30 45482893","website":"https://coffeestar.net/","wheelchair":"no"},"doi":"2020-02-02T17:00:15.560Z","name":"Coffee Star","amenity":"cafe","id":35528080,"location":{"type":"Point","coordinates":[13.3563426,52.5476798]},"googleDetails":{"formatted_address":"Müllerstraße 146, 13353 Berlin, Germany","geometry":{"location":{"lat":52.547751,"lng":13.3563514},"viewport":{"northeast":{"lat":52.54914382989272,"lng":13.35776657989272},"southwest":{"lat":52.54644417010728,"lng":13.35506692010728}}},"name":"Coffee Star Origins & Blends","opening_hours":{"open_now":false},"photos":[{"height":3120,"html_attributions":["<a href=\"https://maps.google.com/maps/contrib/111553812444804144897\">Anna Staber</a>"],"photo_reference":"CmRaAAAAm5DN-m1wffFyj4a0rLajQKnH7D5KMLQDQ9ZxSwtEdYxdzy3_3_xrUEw67FCnTXHci3fvQxNg8A5YeJWmkmvXzvziAUvtKzjWU-JAZsopIMzVRw2YqgRNMz75y35FbSw-EhBpw5sr_D4OIO77zji_pDpDGhSS4nby-ncvKgn8EjhojWY-6Y9Ymw","width":4160}],"place_id":"ChIJXa-d639RqEcRE9Y3M6ZKwD0","plus_code":{"compound_code":"G9X4+4G Berlin, Germany","global_code":"9F4MG9X4+4G"},"price_level":1,"rating":4.7,"types":["cafe","food","point_of_interest","store","establishment"],"user_ratings_total":186},"priceLevel":1,"userRatingsTotal":186,"rating":4.7},{"tags":{"addr:city":"Berlin","addr:country":"DE","addr:housenumber":"72","addr:postcode":"14057","addr:street":"Wundtstraße","addr:suburb":"Charlottenburg","amenity":"restaurant","contact:phone":"+49 30 30207745","contact:website":"http://www.mexikanisches-restaurant-berlin.de/","cuisine":"mexican","level":"0","name":"Paella","opening_hours":"Nov-Apr: Mo-Sa 15:00+; Su 12:00+; May-Oct: Mo-Su 12:00+","toilets:wheelchair":"yes","wheelchair":"limited"},"doi":"2020-02-02T17:00:16.660Z","name":"Paella","amenity":"restaurant","id":35966292,"location":{"type":"Point","coordinates":[13.2839198,52.5068889]},"googleDetails":{"formatted_address":"Wundtstraße 72, 14057 Berlin, Germany","geometry":{"location":{"lat":52.5068986,"lng":13.2839351},"viewport":{"northeast":{"lat":52.50819777989273,"lng":13.28533997989272},"southwest":{"lat":52.50549812010728,"lng":13.28264032010728}}},"name":"Restaurant & Cocktailbar Paella","opening_hours":{"open_now":true},"photos":[{"height":2988,"html_attributions":["<a href=\"https://maps.google.com/maps/contrib/116478673632894933304\">Sia</a>"],"photo_reference":"CmRaAAAAh_uOHX___wsnHUMvzuv2_7E_TFLc2LESHEQocxFoH_cfWPiFhyomUDZUwUUGZzDbPQ3B8LMidS9QXUkGib5dxgUtVDpgBNKgx9ksC3YtufxyKi5ncDMCOO8-qZokCKUbEhCMgdtqVlBObsuYQURZnUW4GhTijHptDprPBVjxTV1Q9OlYA5OeBw","width":5312}],"place_id":"ChIJ6_pgX9FQqEcRdXn36EdrV30","plus_code":{"compound_code":"G74M+QH Berlin, Germany","global_code":"9F4MG74M+QH"},"price_level":2,"rating":4.2,"types":["bar","restaurant","food","point_of_interest","establishment"],"user_ratings_total":325},"priceLevel":2,"userRatingsTotal":325,"rating":4.2},{"tags":{"addr:city":"Berlin","addr:country":"DE","addr:housenumber":"24","addr:postcode":"14057","addr:street":"Kaiserdamm","addr:suburb":"Westend","amenity":"restaurant","cuisine":"mexican","name":"Cancún","phone":"+493030111105","toilets:wheelchair":"no","website":"http://www.cancun-restaurant.de/","wheelchair":"limited"},"doi":"2020-02-02T17:00:17.873Z","name":"Cancún","amenity":"restaurant","id":35973391,"location":{"type":"Point","coordinates":[13.2829535,52.5103223]},"googleDetails":{"formatted_address":"Cancún, Quintana Roo, Mexico","geometry":{"location":{"lat":21.161908,"lng":-86.8515279},"viewport":{"northeast":{"lat":21.2129226,"lng":-86.74054009999999},"southwest":{"lat":21.0297632,"lng":-86.9579266}}},"name":"Cancún","photos":[{"height":1908,"html_attributions":["<a href=\"https://maps.google.com/maps/contrib/112389282686893493411\">JOHN BUITRAGO</a>"],"photo_reference":"CmRaAAAAHxtkct4NR1Eo-rGOE6Vu03IBCKhXTMkRffgxmAinR2EtNusY5rzZSmwmuNDEDziEpO0WZGFz1Hn2aN0LZ5TYiYogksseExFhZvcUmEwtGZ7QOv4mFfNE9aBPWXQkAYzmEhBDGebQ4ID9Yx__Nom0VeTDGhT5Nr3n0CpKoaP_v7MJAV8n8NZvMg","width":4032}],"place_id":"ChIJ21P2rgUrTI8Ris1fYjy3Ms4","types":["locality","political"]}}]